id,postal_cd,country_cd,city_name,state_abbrv,latitude,longitude
12564,30002,US,Avondale Estates,GA,33.7710360000,-84.2593120000
12565,30003,US,Norcross,GA,33.9378000000,-84.2013000000
12566,30004,US,Alpharetta,GA,34.1285810000,-84.2948540000
12567,30005,US,Alpharetta,GA,34.0905440000,-84.2182820000
12568,30006,US,Marietta,GA,33.9527000000,-84.5502000000
12569,30007,US,Marietta,GA,33.9527000000,-84.5502000000
12570,30008,US,Marietta,GA,33.9008500000,-84.5870910000
12571,30009,US,Alpharetta,GA,34.0244000000,-84.2524000000
12572,30010,US,Norcross,GA,33.9378000000,-84.2013000000
12573,30011,US,Auburn,GA,34.0196900000,-83.8347490000
12574,30012,US,Conyers,GA,33.7196830000,-84.0071680000
12575,30013,US,Conyers,GA,33.6403500000,-83.9676420000
12576,30014,US,Covington,GA,33.5631260000,-83.8430420000
12577,30015,US,Covington,GA,33.5515000000,-83.8961000000
12578,30016,US,Covington,GA,33.5132840000,-83.9501740000
12579,30017,US,Grayson,GA,33.8865360000,-83.9600860000
12580,30018,US,Jersey,GA,33.7135000000,-83.7877000000
12581,30019,US,Dacula,GA,33.9786890000,-83.8762080000
12582,30021,US,Clarkston,GA,33.8078730000,-84.2390820000
12583,30022,US,Alpharetta,GA,34.0205380000,-84.2487460000
12584,30023,US,Alpharetta,GA,34.0758000000,-84.2956000000
12585,30024,US,Suwanee,GA,34.0648990000,-84.0932880000
12586,30025,US,Social Circle,GA,33.6541550000,-83.6918220000
12587,30026,US,North Metro,GA,33.9908000000,-84.1533000000
12588,30028,US,Cumming,GA,34.2867600000,-84.1727770000
12589,30029,US,North Metro,GA,33.9908000000,-84.1533000000
12590,30030,US,Decatur,GA,33.7709000000,-84.2923750000
12591,30031,US,Decatur,GA,33.7749000000,-84.2965000000
12592,30032,US,Decatur,GA,33.7495440000,-84.2736740000
12593,30033,US,Decatur,GA,33.8163890000,-84.2863990000
12594,30034,US,Decatur,GA,33.6873010000,-84.2503040000
12595,30035,US,Decatur,GA,33.7331760000,-84.2031620000
12596,30036,US,Decatur,GA,33.7749000000,-84.2965000000
12597,30037,US,Decatur,GA,33.7749000000,-84.2965000000
12598,30038,US,Lithonia,GA,33.6592820000,-84.1428810000
12599,30039,US,Snellville,GA,33.7964950000,-84.0331200000
12600,30040,US,Cumming,GA,34.2109990000,-84.1792910000
12601,30041,US,Cumming,GA,34.2024840000,-84.1096120000
12602,30042,US,Lawrenceville,GA,33.9563000000,-83.9881000000
12603,30043,US,Lawrenceville,GA,34.0046520000,-84.0130000000
12604,30044,US,Lawrenceville,GA,33.9215760000,-84.0672540000
12605,30045,US,Lawrenceville,GA,33.9348000000,-83.9535890000
12606,30046,US,Lawrenceville,GA,33.9562000000,-83.9884000000
12607,30047,US,Lilburn,GA,33.8641460000,-84.1140880000
12608,30048,US,Lilburn,GA,33.8903000000,-84.1432000000
12609,30049,US,Lawrenceville,GA,33.9563000000,-83.9881000000
12610,30052,US,Loganville,GA,33.8093920000,-83.8893490000
12611,30054,US,Oxford,GA,33.6794800000,-83.8739890000
12612,30055,US,Mansfield,GA,33.5031050000,-83.7379780000
12613,30056,US,Newborn,GA,33.4841020000,-83.6450770000
12614,30058,US,Lithonia,GA,33.7412200000,-84.0975550000
12615,30060,US,Marietta,GA,33.9270880000,-84.5411280000
12616,30061,US,Marietta,GA,33.9525000000,-84.5500000000
12617,30062,US,Marietta,GA,34.0059120000,-84.4707800000
12618,30063,US,Marietta,GA,33.9525000000,-84.5500000000
12619,30064,US,Marietta,GA,33.9275550000,-84.6201660000
12620,30065,US,Marietta,GA,33.9525000000,-84.5500000000
12621,30066,US,Marietta,GA,34.0243560000,-84.5004340000
12622,30067,US,Marietta,GA,33.9331840000,-84.4629040000
12623,30068,US,Marietta,GA,33.9721740000,-84.4411080000
12624,30069,US,Marietta,GA,33.9144780000,-84.5191000000
12625,30070,US,Porterdale,GA,33.5746070000,-83.8975950000
12626,30071,US,Norcross,GA,33.9451110000,-84.2121200000
12627,30072,US,Pine Lake,GA,33.7906960000,-84.2050620000
12628,30074,US,Redan,GA,33.7460000000,-84.1369000000
12629,30075,US,Roswell,GA,34.0561360000,-84.3794650000
12630,30076,US,Roswell,GA,34.0248870000,-84.3119080000
12631,30077,US,Roswell,GA,34.0231000000,-84.3614000000
12632,30078,US,Snellville,GA,33.8607660000,-84.0077090000
12633,30079,US,Scottdale,GA,33.7947000000,-84.2586400000
12634,30080,US,Smyrna,GA,33.8650400000,-84.4982380000
12635,30081,US,Smyrna,GA,33.8837000000,-84.5144000000
12636,30082,US,Smyrna,GA,33.8563460000,-84.5294860000
12637,30083,US,Stone Mountain,GA,33.7848590000,-84.1986400000
12638,30084,US,Tucker,GA,33.8560220000,-84.2136820000
12639,30085,US,Tucker,GA,33.8547000000,-84.2172000000
12640,30086,US,Stone Mountain,GA,33.8547000000,-84.2172000000
12641,30087,US,Stone Mountain,GA,33.8157800000,-84.1325680000
12642,30088,US,Stone Mountain,GA,33.7568820000,-84.1750400000
12643,30090,US,Marietta,GA,33.9525000000,-84.5500000000
12644,30091,US,Norcross,GA,33.9412000000,-84.2137000000
12645,30092,US,Norcross,GA,33.9681490000,-84.2267880000
12646,30093,US,Norcross,GA,33.9059460000,-84.1807330000
12647,30094,US,Conyers,GA,33.6146840000,-84.0610820000
12648,30095,US,Duluth,GA,33.9906000000,-84.1531000000
12649,30096,US,Duluth,GA,33.9824420000,-84.1510790000
12650,30097,US,Duluth,GA,34.0286460000,-84.1468260000
12651,30098,US,Duluth,GA,33.9906000000,-84.1531000000
12652,30099,US,Duluth,GA,33.9906000000,-84.1531000000
12653,30101,US,Acworth,GA,34.0321490000,-84.7025870000
12654,30102,US,Acworth,GA,34.1087120000,-84.6379230000
12655,30103,US,Adairsville,GA,34.3691260000,-84.9300720000
12656,30104,US,Aragon,GA,34.0893120000,-85.0649340000
12657,30105,US,Armuchee,GA,34.4772440000,-85.1493840000
12658,30106,US,Austell,GA,33.8335060000,-84.6247500000
12659,30107,US,Ball Ground,GA,34.3418860000,-84.3539190000
12660,30108,US,Bowdon,GA,33.5307600000,-85.2601630000
12661,30109,US,Bowdon Junction,GA,33.6622000000,-85.1486000000
12662,30110,US,Bremen,GA,33.7451120000,-85.1476980000
12663,30111,US,Clarkdale,GA,33.8274000000,-84.6568000000
12664,30112,US,Carrollton,GA,33.5800000000,-85.0790000000
12665,30113,US,Buchanan,GA,33.8488580000,-85.1960540000
12666,30114,US,Canton,GA,34.2546810000,-84.5091530000
12667,30115,US,Canton,GA,34.2067580000,-84.3943740000
12668,30116,US,Carrollton,GA,33.5466690000,-85.0087110000
12669,30117,US,Carrollton,GA,33.5767640000,-85.1329250000
12670,30118,US,Carrollton,GA,33.5721280000,-85.1033280000
12671,30119,US,Carrollton,GA,33.5665000000,-85.0756000000
12672,30120,US,Cartersville,GA,34.1919300000,-84.8445840000
12673,30121,US,Cartersville,GA,34.2021640000,-84.7776620000
12674,30122,US,Lithia Springs,GA,33.7591690000,-84.6451600000
12675,30123,US,Cassville,GA,34.2432000000,-84.8505000000
12676,30124,US,Cave Spring,GA,34.1293320000,-85.3462490000
12677,30125,US,Cedartown,GA,34.0014600000,-85.2616300000
12678,30126,US,Mableton,GA,33.8138000000,-84.5502920000
12679,30127,US,Powder Springs,GA,33.8824780000,-84.7003240000
12680,30129,US,Coosa,GA,34.2539000000,-85.3548000000
12681,30132,US,Dallas,GA,33.9923210000,-84.8611120000
12682,30133,US,Douglasville,GA,33.7516000000,-84.7478000000
12683,30134,US,Douglasville,GA,33.7808660000,-84.7769180000
12684,30135,US,Douglasville,GA,33.6673960000,-84.7346310000
12685,30137,US,Emerson,GA,34.1265100000,-84.7685000000
12686,30138,US,Esom Hill,GA,33.9495000000,-85.3881000000
12687,30139,US,Fairmount,GA,34.4366470000,-84.6930530000
12688,30140,US,Felton,GA,33.8914000000,-85.1960000000
12689,30141,US,Hiram,GA,33.8634910000,-84.7703790000
12690,30142,US,Holly Springs,GA,34.1739000000,-84.5007000000
12691,30143,US,Jasper,GA,34.4662860000,-84.4276580000
12692,30144,US,Kennesaw,GA,34.0333020000,-84.5977210000
12693,30145,US,Kingston,GA,34.2405660000,-84.9854640000
12694,30146,US,Lebanon,GA,34.1454000000,-84.5098000000
12695,30147,US,Lindale,GA,34.1424750000,-85.2202160000
12696,30148,US,Marble Hill,GA,34.4575530000,-84.2859920000
12697,30149,US,Mount Berry,GA,34.2908450000,-85.1900160000
12698,30150,US,Mount Zion,GA,33.6327000000,-85.1861000000
12699,30151,US,Nelson,GA,34.3826000000,-84.3694000000
12700,30152,US,Kennesaw,GA,33.9896440000,-84.6454680000
12701,30153,US,Rockmart,GA,33.9757530000,-85.0577020000
12702,30154,US,Douglasville,GA,34.7515000000,-84.7475000000
12703,30156,US,Kennesaw,GA,33.9919000000,-84.6543000000
12704,30157,US,Dallas,GA,33.8943280000,-84.8608100000
12705,30160,US,Kennesaw,GA,33.9919000000,-84.6543000000
12706,30161,US,Rome,GA,34.2662330000,-85.2215430000
12707,30162,US,Rome,GA,34.2566000000,-85.1649000000
12708,30163,US,Rome,GA,34.2216000000,-85.1864000000
12709,30164,US,Rome,GA,34.2566000000,-85.1649000000
12710,30165,US,Rome,GA,34.3093600000,-85.2696320000
12711,30168,US,Austell,GA,33.7806160000,-84.5881780000
12712,30169,US,Canton,GA,,
12713,30170,US,Roopville,GA,33.4360540000,-85.1861040000
12714,30171,US,Rydal,GA,34.3644060000,-84.7467930000
12715,30172,US,Shannon,GA,34.3429000000,-85.0858000000
12716,30173,US,Silver Creek,GA,34.1382370000,-85.1330120000
12717,30175,US,Talking Rock,GA,34.5630580000,-84.5174260000
12718,30176,US,Tallapoosa,GA,33.7812900000,-85.2919240000
12719,30177,US,Tate,GA,34.4238140000,-84.3777100000
12720,30178,US,Taylorsville,GA,34.1070970000,-84.9632660000
12721,30179,US,Temple,GA,33.7800810000,-84.9975200000
12722,30180,US,Villa Rica,GA,33.7088960000,-84.9131500000
12723,30182,US,Waco,GA,33.6478920000,-85.2509640000
12724,30183,US,Waleska,GA,34.3318180000,-84.5892060000
12725,30184,US,White,GA,34.2561080000,-84.7177600000
12726,30185,US,Whitesburg,GA,33.5149120000,-84.9063740000
12727,30187,US,Winston,GA,33.6590160000,-84.8441800000
12728,30188,US,Woodstock,GA,34.1205730000,-84.4479010000
12729,30189,US,Woodstock,GA,34.1277560000,-84.5757530000
12730,30204,US,Barnesville,GA,33.0550110000,-84.1511680000
12731,30205,US,Brooks,GA,33.2635750000,-84.4618500000
12732,30206,US,Concord,GA,33.1005150000,-84.4545410000
12733,30212,US,Experiment,GA,33.2660000000,-84.2806000000
12734,30213,US,Fairburn,GA,33.5785560000,-84.6019020000
12735,30214,US,Fayetteville,GA,33.4804650000,-84.4803960000
12736,30215,US,Fayetteville,GA,33.3757650000,-84.4693560000
12737,30216,US,Flovilla,GA,33.2432480000,-83.8877740000
12738,30217,US,Franklin,GA,33.2780960000,-85.1327380000
12739,30218,US,Gay,GA,33.1234750000,-84.5903500000
12740,30219,US,Glenn,GA,33.1546000000,-85.2030000000
12741,30220,US,Grantville,GA,33.2530260000,-84.8492830000
12742,30222,US,Greenville,GA,33.0512640000,-84.7435810000
12743,30223,US,Griffin,GA,33.2878600000,-84.2750540000
12744,30224,US,Griffin,GA,33.1962000000,-84.2732740000
12745,30228,US,Hampton,GA,33.4080480000,-84.3030240000
12746,30229,US,Haralson,GA,33.2257000000,-84.5698000000
12747,30230,US,Hogansville,GA,33.1442920000,-84.9220500000
12748,30233,US,Jackson,GA,33.3122140000,-83.9798960000
12749,30234,US,Jenkinsburg,GA,33.3268840000,-84.0200290000
12750,30236,US,Jonesboro,GA,33.5178700000,-84.3236220000
12751,30237,US,Jonesboro,GA,33.5215000000,-84.3539000000
12752,30238,US,Jonesboro,GA,33.4976170000,-84.3825290000
12753,30240,US,Lagrange,GA,33.0345950000,-85.1272660000
12754,30241,US,Lagrange,GA,33.0210260000,-84.9527580000
12755,30248,US,Locust Grove,GA,33.3403080000,-84.1215660000
12756,30250,US,Lovejoy,GA,33.4404860000,-84.3145540000
12757,30251,US,Luthersville,GA,33.1771460000,-84.6990300000
12758,30252,US,Mcdonough,GA,33.4818190000,-84.0345280000
12759,30253,US,Mcdonough,GA,33.4440390000,-84.1893150000
12760,30256,US,Meansville,GA,33.0131940000,-84.3159590000
12761,30257,US,Milner,GA,33.1338120000,-84.1633890000
12762,30258,US,Molena,GA,32.9864980000,-84.4485440000
12763,30259,US,Moreland,GA,33.2760380000,-84.7233570000
12764,30260,US,Morrow,GA,33.5846130000,-84.3280980000
12765,30261,US,Lagrange,GA,33.0399000000,-84.8806000000
12766,30263,US,Newnan,GA,33.3737660000,-84.8588920000
12767,30264,US,Newnan,GA,33.3807000000,-84.7999000000
12768,30265,US,Newnan,GA,33.4175020000,-84.7045740000
12769,30266,US,Orchard Hill,GA,33.1867000000,-84.2115000000
12770,30268,US,Palmetto,GA,33.5538460000,-84.7201340000
12771,30269,US,Peachtree City,GA,33.3908110000,-84.5726080000
12772,30270,US,Peachtree City,GA,,
12773,30271,US,Newnan,GA,33.3841000000,-84.8129000000
12774,30272,US,Red Oak,GA,33.6246000000,-84.4987000000
12775,30273,US,Rex,GA,33.5847390000,-84.2724150000
12776,30274,US,Riverdale,GA,33.5525200000,-84.3983140000
12777,30275,US,Sargent,GA,33.4356750000,-84.8700660000
12778,30276,US,Senoia,GA,33.2851780000,-84.5958060000
12779,30277,US,Sharpsburg,GA,33.3941160000,-84.6378260000
12780,30281,US,Stockbridge,GA,33.5551460000,-84.1874580000
12781,30284,US,Sunny Side,GA,33.3412000000,-84.2909000000
12782,30285,US,The Rock,GA,32.9927320000,-84.2350420000
12783,30286,US,Thomaston,GA,32.8806750000,-84.3388010000
12784,30287,US,Morrow,GA,33.5858000000,-84.3419000000
12785,30288,US,Conley,GA,33.6520930000,-84.3227940000
12786,30289,US,Turin,GA,33.3273000000,-84.6326000000
12787,30290,US,Tyrone,GA,33.4805880000,-84.5846070000
12788,30291,US,Union City,GA,33.5717420000,-84.5446270000
12789,30292,US,Williamson,GA,33.1514520000,-84.4104590000
12790,30293,US,Woodbury,GA,32.9894550000,-84.6076800000
12791,30294,US,Ellenwood,GA,33.6354200000,-84.2542350000
12792,30295,US,Zebulon,GA,33.1002380000,-84.3190650000
12793,30296,US,Riverdale,GA,33.5537270000,-84.4527220000
12794,30297,US,Forest Park,GA,33.6103480000,-84.3590620000
12795,30298,US,Forest Park,GA,33.6219000000,-84.3693000000
12796,30301,US,Atlanta,GA,33.7486000000,-84.3884000000
12797,30302,US,Atlanta,GA,33.7486000000,-84.3884000000
12798,30303,US,Atlanta,GA,33.7528800000,-84.3924260000
12799,30304,US,Atlanta,GA,33.7465000000,-84.3915000000
12800,30305,US,Atlanta,GA,33.8347730000,-84.3884020000
12801,30306,US,Atlanta,GA,33.7890380000,-84.3535830000
12802,30307,US,Atlanta,GA,33.7743520000,-84.3364520000
12803,30308,US,Atlanta,GA,33.7691220000,-84.3764540000
12804,30309,US,Atlanta,GA,33.7984630000,-84.3882840000
12805,30310,US,Atlanta,GA,33.7241130000,-84.4312900000
12806,30311,US,Atlanta,GA,33.7258720000,-84.4687640000
12807,30312,US,Atlanta,GA,33.7433580000,-84.3832430000
12808,30313,US,Atlanta,GA,33.7613680000,-84.4009340000
12809,30314,US,Atlanta,GA,33.7572340000,-84.4339690000
12810,30315,US,Atlanta,GA,33.7067360000,-84.3795200000
12811,30316,US,Atlanta,GA,33.7175870000,-84.3322460000
12812,30317,US,Atlanta,GA,33.7521360000,-84.3165010000
12813,30318,US,Atlanta,GA,33.7930850000,-84.4453570000
12814,30319,US,Atlanta,GA,33.8772720000,-84.3340420000
12815,30320,US,Atlanta,GA,33.6425330000,-84.4441780000
12816,30321,US,Atlanta,GA,33.6403000000,-84.3952000000
12817,30322,US,Atlanta,GA,33.7959030000,-84.3283370000
12818,30324,US,Atlanta,GA,33.8197870000,-84.3602130000
12819,30325,US,Atlanta,GA,33.7486000000,-84.3884000000
12820,30326,US,Atlanta,GA,33.8498820000,-84.3610950000
12821,30327,US,Atlanta,GA,33.8648870000,-84.4238870000
12822,30328,US,Atlanta,GA,33.9345580000,-84.3956570000
12823,30329,US,Atlanta,GA,33.8267380000,-84.3247300000
12824,30330,US,Atlanta,GA,33.7071280000,-84.4355240000
12825,30331,US,Atlanta,GA,33.7247910000,-84.5802020000
12826,30332,US,Atlanta,GA,33.7759000000,-84.3927000000
12827,30333,US,Atlanta,GA,33.7788000000,-84.3361000000
12828,30334,US,Atlanta,GA,33.7486500000,-84.3874450000
12829,30336,US,Atlanta,GA,33.7408900000,-84.5636160000
12830,30337,US,Atlanta,GA,33.6425520000,-84.4464950000
12831,30338,US,Atlanta,GA,33.9447160000,-84.3180590000
12832,30339,US,Atlanta,GA,33.8759150000,-84.4546310000
12833,30340,US,Atlanta,GA,33.8989140000,-84.2540320000
12834,30341,US,Atlanta,GA,33.8905670000,-84.2762280000
12835,30342,US,Atlanta,GA,33.8818600000,-84.3783000000
12836,30343,US,Atlanta,GA,33.7486000000,-84.3884000000
12837,30344,US,Atlanta,GA,33.6687480000,-84.4676560000
12838,30345,US,Atlanta,GA,33.8450940000,-84.2809480000
12839,30346,US,Atlanta,GA,33.9247140000,-84.3379840000
12840,30348,US,Atlanta,GA,33.7486000000,-84.3884000000
12841,30349,US,Atlanta,GA,33.6218900000,-84.5211940000
12842,30350,US,Atlanta,GA,33.9832380000,-84.3230010000
12843,30353,US,Atlanta,GA,33.7486000000,-84.3884000000
12844,30354,US,Atlanta,GA,33.6594120000,-84.3895320000
12845,30355,US,Atlanta,GA,33.7486000000,-84.3884000000
12846,30356,US,Atlanta,GA,33.9626000000,-84.3434000000
12847,30357,US,Atlanta,GA,33.7486000000,-84.3884000000
12848,30358,US,Atlanta,GA,33.7486000000,-84.3884000000
12849,30359,US,Atlanta,GA,33.8132000000,-84.3364000000
12850,30360,US,Atlanta,GA,33.9338080000,-84.2662000000
12851,30361,US,Atlanta,GA,33.7496000000,-84.3877000000
12852,30362,US,Atlanta,GA,33.9024000000,-84.2739000000
12853,30363,US,Atlanta,GA,33.7931390000,-84.3961390000
12854,30364,US,Atlanta,GA,33.7486000000,-84.3884000000
12855,30366,US,Atlanta,GA,33.8850000000,-84.2995000000
12856,30368,US,Atlanta,GA,33.7486000000,-84.3884000000
12857,30369,US,Atlanta,GA,33.7535000000,-84.3977000000
12858,30370,US,Atlanta,GA,33.7486000000,-84.3884000000
12859,30371,US,Atlanta,GA,33.7486000000,-84.3884000000
12860,30374,US,Atlanta,GA,33.7486000000,-84.3884000000
12861,30375,US,Atlanta,GA,33.7486000000,-84.3884000000
12862,30377,US,Atlanta,GA,33.7486000000,-84.3884000000
12863,30378,US,Atlanta,GA,33.7405850000,-84.5641470000
12864,30380,US,Atlanta,GA,33.7486000000,-84.3884000000
12865,30384,US,Atlanta,GA,33.7486000000,-84.3884000000
12866,30385,US,Atlanta,GA,33.7486000000,-84.3884000000
12867,30388,US,Atlanta,GA,33.7486000000,-84.3884000000
12868,30392,US,Atlanta,GA,33.7486000000,-84.3884000000
12869,30394,US,Atlanta,GA,33.7486000000,-84.3884000000
12870,30396,US,Atlanta,GA,33.7486000000,-84.3884000000
12871,30398,US,Atlanta,GA,33.7486000000,-84.3884000000
12872,30401,US,Swainsboro,GA,32.5550310000,-82.3492640000
12873,30410,US,Ailey,GA,32.1699440000,-82.5117360000
12874,30411,US,Alamo,GA,32.1184250000,-82.8138940000
12875,30412,US,Alston,GA,32.0964220000,-82.5002660000
12876,30413,US,Bartow,GA,32.9109370000,-82.5301960000
12877,30414,US,Bellville,GA,32.1663040000,-81.9827490000
12878,30415,US,Brooklet,GA,32.3346680000,-81.6007550000
12879,30417,US,Claxton,GA,32.1643560000,-81.9034940000
12880,30420,US,Cobbtown,GA,32.2621060000,-82.1259580000
12881,30421,US,Collins,GA,32.1887700000,-82.1058650000
12882,30423,US,Daisy,GA,32.1461870000,-81.8324680000
12883,30424,US,Dover,GA,32.5769000000,-81.7155000000
12884,30425,US,Garfield,GA,32.6386430000,-82.0080730000
12885,30426,US,Girard,GA,33.0483080000,-81.6805240000
12886,30427,US,Glennville,GA,31.9319820000,-81.9889480000
12887,30428,US,Glenwood,GA,32.1579320000,-82.6828030000
12888,30429,US,Hagan,GA,32.1612640000,-81.9396870000
12889,30434,US,Louisville,GA,32.9868500000,-82.4272470000
12890,30436,US,Lyons,GA,32.1627380000,-82.3040270000
12891,30438,US,Manassas,GA,32.0956990000,-82.0525200000
12892,30439,US,Metter,GA,32.4089580000,-82.0865460000
12893,30441,US,Midville,GA,32.8172930000,-82.2503710000
12894,30442,US,Millen,GA,32.7834900000,-82.0079440000
12895,30445,US,Mount Vernon,GA,32.1714540000,-82.5875640000
12896,30446,US,Newington,GA,32.5945830000,-81.4774060000
12897,30447,US,Norristown,GA,32.5038750000,-82.4882440000
12898,30448,US,Nunez,GA,32.5005900000,-82.3635280000
12899,30449,US,Oliver,GA,32.5217000000,-81.5333000000
12900,30450,US,Portal,GA,32.5524930000,-81.9426580000
12901,30451,US,Pulaski,GA,32.3901000000,-81.9569000000
12902,30452,US,Register,GA,32.3200940000,-81.8820240000
12903,30453,US,Reidsville,GA,32.0289850000,-82.1092300000
12904,30454,US,Rockledge,GA,32.4440160000,-82.7256470000
12905,30455,US,Rocky Ford,GA,32.7019120000,-81.8132200000
12906,30456,US,Sardis,GA,32.9753290000,-81.7843210000
12907,30457,US,Soperton,GA,32.4001410000,-82.5654860000
12908,30458,US,Statesboro,GA,32.3920090000,-81.8395310000
12909,30459,US,Statesboro,GA,32.4486000000,-81.7833000000
12910,30460,US,Statesboro,GA,32.4352000000,-81.7835000000
12911,30461,US,Statesboro,GA,32.5198420000,-81.7074650000
12912,30464,US,Stillmore,GA,32.4250140000,-82.2288300000
12913,30467,US,Sylvania,GA,32.7856100000,-81.6082150000
12914,30470,US,Tarrytown,GA,32.2980690000,-82.5351500000
12915,30471,US,Twin City,GA,32.5459960000,-82.1486800000
12916,30473,US,Uvalda,GA,32.0327230000,-82.4835650000
12917,30474,US,Vidalia,GA,32.2060230000,-82.4349960000
12918,30475,US,Vidalia,GA,32.2148000000,-82.4107000000
12919,30477,US,Wadley,GA,32.8626230000,-82.4455220000
12920,30499,US,Reidsville,GA,32.0864000000,-82.1181000000
12921,30501,US,Gainesville,GA,34.3136480000,-83.8105560000
12922,30502,US,Chestnut Mountain,GA,34.1723000000,-83.8384000000
12923,30503,US,Gainesville,GA,34.2975000000,-83.8242000000
12924,30504,US,Gainesville,GA,34.2738840000,-83.8929040000
12925,30506,US,Gainesville,GA,34.3214200000,-83.8804830000
12926,30507,US,Gainesville,GA,34.2639880000,-83.7724000000
12927,30510,US,Alto,GA,34.4474660000,-83.5777980000
12928,30511,US,Baldwin,GA,34.4536320000,-83.4722030000
12929,30512,US,Blairsville,GA,34.8548840000,-83.9639980000
12930,30513,US,Blue Ridge,GA,34.7933290000,-84.3273900000
12931,30514,US,Blairsville,GA,34.8786000000,-84.0317000000
12932,30515,US,Buford,GA,34.1046000000,-84.0037000000
12933,30516,US,Bowersville,GA,34.3767110000,-83.0362910000
12934,30517,US,Braselton,GA,34.1302860000,-83.7895340000
12935,30518,US,Buford,GA,34.1307920000,-84.0192640000
12936,30519,US,Buford,GA,34.0932220000,-83.9359380000
12937,30520,US,Canon,GA,34.3475610000,-83.0813800000
12938,30521,US,Carnesville,GA,34.3584800000,-83.2973780000
12939,30522,US,Cherry Log,GA,34.7965960000,-84.3350650000
12940,30523,US,Clarkesville,GA,34.7166060000,-83.5099340000
12941,30525,US,Clayton,GA,34.8951560000,-83.3799670000
12942,30527,US,Clermont,GA,34.4791360000,-83.7753120000
12943,30528,US,Cleveland,GA,34.6175350000,-83.7759480000
12944,30529,US,Commerce,GA,34.2208060000,-83.4981740000
12945,30530,US,Commerce,GA,34.2275350000,-83.3798230000
12946,30531,US,Cornelia,GA,34.4994960000,-83.5871390000
12947,30533,US,Dahlonega,GA,34.5794700000,-84.0248810000
12948,30534,US,Dawsonville,GA,34.4606800000,-84.1518360000
12949,30535,US,Demorest,GA,34.5859460000,-83.5706860000
12950,30536,US,Ellijay,GA,34.6568760000,-84.3479720000
12951,30537,US,Dillard,GA,34.9785080000,-83.3479520000
12952,30538,US,Eastanollee,GA,34.4812400000,-83.2644880000
12953,30539,US,East Ellijay,GA,34.6790900000,-84.4659200000
12954,30540,US,Ellijay,GA,34.7090860000,-84.5241670000
12955,30541,US,Epworth,GA,34.9216110000,-84.4963840000
12956,30542,US,Flowery Branch,GA,34.1709320000,-83.9181010000
12957,30543,US,Gillsville,GA,34.2871260000,-83.6449350000
12958,30545,US,Helen,GA,34.7308860000,-83.7682260000
12959,30546,US,Hiawassee,GA,34.8914530000,-83.6861760000
12960,30547,US,Homer,GA,34.3629820000,-83.4587660000
12961,30548,US,Hoschton,GA,34.0976480000,-83.7768340000
12962,30549,US,Jefferson,GA,34.0963640000,-83.5745610000
12963,30552,US,Lakemont,GA,34.7634420000,-83.4447200000
12964,30553,US,Lavonia,GA,34.4372200000,-83.0838500000
12965,30554,US,Lula,GA,34.4071700000,-83.6453580000
12966,30555,US,Mc Caysville,GA,34.9638280000,-84.4338300000
12967,30557,US,Martin,GA,34.4981600000,-83.1976920000
12968,30558,US,Maysville,GA,34.2831280000,-83.5775840000
12969,30559,US,Mineral Bluff,GA,34.9355180000,-84.2501100000
12970,30560,US,Morganton,GA,34.8820010000,-84.1912890000
12971,30562,US,Mountain City,GA,34.9196110000,-83.3856460000
12972,30563,US,Mount Airy,GA,34.5538950000,-83.4618810000
12973,30564,US,Murrayville,GA,34.4725750000,-83.8971770000
12974,30565,US,Nicholson,GA,34.0863080000,-83.4144020000
12975,30566,US,Oakwood,GA,34.2380140000,-83.8946320000
12976,30567,US,Pendergrass,GA,34.1906750000,-83.6792790000
12977,30568,US,Rabun Gap,GA,34.9533570000,-83.4103060000
12978,30571,US,Sautee Nacoochee,GA,34.7187090000,-83.7067860000
12979,30572,US,Suches,GA,34.7401120000,-84.0648340000
12980,30573,US,Tallulah Falls,GA,34.7361000000,-83.3915000000
12981,30575,US,Talmo,GA,34.1945260000,-83.7162760000
12982,30576,US,Tiger,GA,34.8112040000,-83.4369190000
12983,30577,US,Toccoa,GA,34.5507620000,-83.3080860000
12984,30580,US,Turnerville,GA,34.6918000000,-83.4259000000
12985,30581,US,Wiley,GA,34.7954630000,-83.4222080000
12986,30582,US,Young Harris,GA,34.9302650000,-83.9000790000
12987,30597,US,Dahlonega,GA,34.5286860000,-83.9845920000
12988,30598,US,Toccoa Falls,GA,34.6020250000,-83.3615680000
12989,30599,US,Commerce,GA,34.2038000000,-83.4573000000
12990,30601,US,Athens,GA,34.0017400000,-83.3508230000
12991,30602,US,Athens,GA,33.9494160000,-83.3762260000
12992,30603,US,Athens,GA,33.9605000000,-83.3784000000
12993,30604,US,Athens,GA,33.9605000000,-83.3784000000
12994,30605,US,Athens,GA,33.9031550000,-83.3229280000
12995,30606,US,Athens,GA,33.9374400000,-83.4361100000
12996,30607,US,Athens,GA,34.0274710000,-83.4499540000
12997,30608,US,Athens,GA,33.9605000000,-83.3784000000
12998,30609,US,Athens,GA,33.8955900000,-83.3744960000
12999,30612,US,Athens,GA,33.9605000000,-83.3784000000
13000,30619,US,Arnoldsville,GA,33.8720190000,-83.2345370000
13001,30620,US,Bethlehem,GA,33.9279520000,-83.7662430000
13002,30621,US,Bishop,GA,33.7982980000,-83.4798470000
13003,30622,US,Bogart,GA,33.9217380000,-83.5207020000
13004,30623,US,Bostwick,GA,33.7366000000,-83.5147000000
13005,30624,US,Bowman,GA,34.1983760000,-83.0204160000
13006,30625,US,Buckhead,GA,33.5328890000,-83.3509130000
13007,30627,US,Carlton,GA,33.9731180000,-82.9395120000
13008,30628,US,Colbert,GA,34.0275220000,-83.2082680000
13009,30629,US,Comer,GA,34.0789750000,-83.0961690000
13010,30630,US,Crawford,GA,33.8981540000,-83.1631110000
13011,30631,US,Crawfordville,GA,33.5693430000,-82.8470310000
13012,30633,US,Danielsville,GA,34.1649410000,-83.2596300000
13013,30634,US,Dewy Rose,GA,34.2124390000,-82.9407060000
13014,30635,US,Elberton,GA,34.1223760000,-82.8004180000
13015,30638,US,Farmington,GA,33.7767000000,-83.4272920000
13016,30639,US,Franklin Springs,GA,34.2818700000,-83.1482580000
13017,30641,US,Good Hope,GA,33.7777440000,-83.5710450000
13018,30642,US,Greensboro,GA,33.5556960000,-83.1730210000
13019,30643,US,Hartwell,GA,34.3685030000,-82.8991960000
13020,30645,US,High Shoals,GA,33.8003000000,-83.5015000000
13021,30646,US,Hull,GA,34.0842320000,-83.3095100000
13022,30647,US,Ila,GA,34.1747000000,-83.2919000000
13023,30648,US,Lexington,GA,33.8866410000,-83.0626760000
13024,30650,US,Madison,GA,33.5908410000,-83.4452440000
13025,30655,US,Monroe,GA,33.7933460000,-83.6994020000
13026,30656,US,Monroe,GA,33.8656580000,-83.7090290000
13027,30660,US,Rayle,GA,33.7877960000,-82.9144720000
13028,30662,US,Royston,GA,34.2506820000,-83.1528010000
13029,30663,US,Rutledge,GA,33.6126790000,-83.5934260000
13030,30664,US,Sharon,GA,33.5621990000,-82.8029320000
13031,30665,US,Siloam,GA,33.5294360000,-83.0743980000
13032,30666,US,Statham,GA,33.9565360000,-83.5832330000
13033,30667,US,Stephens,GA,33.7713520000,-83.1779120000
13034,30668,US,Tignall,GA,33.8818120000,-82.6739030000
13035,30669,US,Union Point,GA,33.6678190000,-83.1239790000
13036,30671,US,Maxeys,GA,33.7376220000,-83.1863680000
13037,30673,US,Washington,GA,33.7431490000,-82.7016020000
13038,30677,US,Watkinsville,GA,33.7979620000,-83.4312820000
13039,30678,US,White Plains,GA,33.4525500000,-83.0888950000
13040,30680,US,Winder,GA,33.9845240000,-83.6901900000
13041,30683,US,Winterville,GA,33.9288100000,-83.2532530000
13042,30701,US,Calhoun,GA,34.4959140000,-84.9484750000
13043,30703,US,Calhoun,GA,34.5028000000,-84.9511000000
13044,30705,US,Chatsworth,GA,34.7450990000,-84.7672270000
13045,30707,US,Chickamauga,GA,34.7675510000,-85.3483950000
13046,30708,US,Cisco,GA,34.8944440000,-84.6627720000
13047,30710,US,Cohutta,GA,34.9412110000,-84.9109560000
13048,30711,US,Crandall,GA,34.9267920000,-84.7553820000
13049,30719,US,Dalton,GA,34.7698000000,-84.9703000000
13050,30720,US,Dalton,GA,34.7595320000,-85.0054940000
13051,30721,US,Dalton,GA,34.7883210000,-84.9074840000
13052,30722,US,Dalton,GA,34.7698000000,-84.9703000000
13053,30724,US,Eton,GA,34.8297650000,-84.7592440000
13054,30725,US,Flintstone,GA,34.9224720000,-85.3534840000
13055,30726,US,Graysville,GA,34.9760270000,-85.1411910000
13056,30728,US,La Fayette,GA,34.6949140000,-85.2326540000
13057,30730,US,Lyerly,GA,34.3710440000,-85.4218280000
13058,30731,US,Menlo,GA,34.5970080000,-85.4702660000
13059,30732,US,Oakman,GA,34.5664000000,-84.7084000000
13060,30733,US,Plainville,GA,34.4105100000,-85.0539240000
13061,30734,US,Ranger,GA,34.5329900000,-84.6881080000
13062,30735,US,Resaca,GA,34.6017000000,-84.8923440000
13063,30736,US,Ringgold,GA,34.8776440000,-85.1194920000
13064,30738,US,Rising Fawn,GA,34.7853150000,-85.4775230000
13065,30739,US,Rock Spring,GA,34.8052010000,-85.2139720000
13066,30740,US,Rocky Face,GA,34.7560840000,-85.0899700000
13067,30741,US,Rossville,GA,34.9365200000,-85.2736240000
13068,30742,US,Fort Oglethorpe,GA,34.9362160000,-85.2437820000
13069,30746,US,Sugar Valley,GA,34.5749350000,-85.0278930000
13070,30747,US,Summerville,GA,34.5155870000,-85.2859740000
13071,30750,US,Lookout Mountain,GA,34.9294090000,-85.4094880000
13072,30751,US,Tennga,GA,34.9763140000,-84.7101780000
13073,30752,US,Trenton,GA,34.9000970000,-85.5206200000
13074,30753,US,Trion,GA,34.5847980000,-85.2981170000
13075,30755,US,Tunnel Hill,GA,34.8622220000,-85.0396820000
13076,30756,US,Varnell,GA,34.9027000000,-84.9743000000
13077,30757,US,Wildwood,GA,34.9281800000,-85.4336500000
13078,30802,US,Appling,GA,33.6002790000,-82.3034700000
13079,30803,US,Avera,GA,33.1576220000,-82.5436700000
13080,30805,US,Blythe,GA,33.2806290000,-82.1929000000
13081,30806,US,Boneville,GA,33.4335000000,-82.4411000000
13082,30807,US,Camak,GA,33.4792840000,-82.6391280000
13083,30808,US,Dearing,GA,33.3872120000,-82.3824280000
13084,30809,US,Evans,GA,33.5587570000,-82.1540050000
13085,30810,US,Gibson,GA,33.2203580000,-82.5787390000
13086,30811,US,Gough,GA,33.0918000000,-82.2269000000
13087,30812,US,Gracewood,GA,33.3727000000,-82.0323000000
13088,30813,US,Grovetown,GA,33.4615720000,-82.2207430000
13089,30814,US,Harlem,GA,33.4486640000,-82.3218490000
13090,30815,US,Hephzibah,GA,33.2903700000,-82.0943160000
13091,30816,US,Keysville,GA,33.1652000000,-82.1759440000
13092,30817,US,Lincolnton,GA,33.7832500000,-82.4072120000
13093,30818,US,Matthews,GA,33.2443420000,-82.2944300000
13094,30819,US,Mesena,GA,33.4598000000,-82.5905000000
13095,30820,US,Mitchell,GA,33.2119600000,-82.7194040000
13096,30821,US,Norwood,GA,33.4900480000,-82.7381700000
13097,30822,US,Perkins,GA,32.9064230000,-81.9042560000
13098,30823,US,Stapleton,GA,33.2312040000,-82.4617230000
13099,30824,US,Thomson,GA,33.4988710000,-82.5156660000
13100,30828,US,Warrenton,GA,33.3926570000,-82.6160310000
13101,30830,US,Waynesboro,GA,33.0899300000,-81.9990620000
13102,30833,US,Wrens,GA,33.1906060000,-82.3534650000
13103,30901,US,Augusta,GA,33.4257790000,-81.9581550000
13104,30903,US,Augusta,GA,33.4667000000,-82.0167000000
13105,30904,US,Augusta,GA,33.4797320000,-82.0157000000
13106,30905,US,Augusta,GA,33.3590010000,-82.2234040000
13107,30906,US,Augusta,GA,33.3451460000,-81.9711000000
13108,30907,US,Augusta,GA,33.5294090000,-82.0893710000
13109,30909,US,Augusta,GA,33.4827430000,-82.0928680000
13110,30912,US,Augusta,GA,33.4715460000,-81.9861800000
13111,30914,US,Augusta,GA,33.4667000000,-82.0167000000
13112,30916,US,Augusta,GA,33.4667000000,-82.0167000000
13113,30917,US,Augusta,GA,33.5164000000,-82.0578000000
13114,30919,US,Augusta,GA,33.4667000000,-82.0167000000
13115,30999,US,Augusta,GA,33.4667000000,-82.0167000000
13116,31001,US,Abbeville,GA,31.9743130000,-83.3054170000
13117,31002,US,Adrian,GA,32.5716460000,-82.5851850000
13118,31003,US,Allentown,GA,32.6826460000,-83.2444410000
13119,31004,US,Bolingbroke,GA,32.9446000000,-83.8036000000
13120,31005,US,Bonaire,GA,32.5133290000,-83.5752350000
13121,31006,US,Butler,GA,32.5921730000,-84.2531930000
13122,31007,US,Byromville,GA,32.1773920000,-83.9238620000
13123,31008,US,Byron,GA,32.6471080000,-83.7900580000
13124,31009,US,Cadwell,GA,32.2636010000,-83.0094330000
13125,31010,US,Cordele,GA,31.9639000000,-83.7828000000
13126,31011,US,Chauncey,GA,32.1231540000,-83.0720320000
13127,31012,US,Chester,GA,32.3815910000,-83.1846400000
13128,31013,US,Clinchfield,GA,32.4092000000,-83.6343000000
13129,31014,US,Cochran,GA,32.4304380000,-83.3231400000
13130,31015,US,Cordele,GA,31.9373760000,-83.7854220000
13131,31016,US,Culloden,GA,32.8296850000,-84.1929160000
13132,31017,US,Danville,GA,32.6253760000,-83.2226400000
13133,31018,US,Davisboro,GA,32.9932580000,-82.6250090000
13134,31019,US,Dexter,GA,32.4216580000,-83.0451310000
13135,31020,US,Dry Branch,GA,32.6389770000,-83.4784660000
13136,31021,US,Dublin,GA,32.4762100000,-82.9436590000
13137,31022,US,Dudley,GA,32.5147080000,-83.1007460000
13138,31023,US,Eastman,GA,32.1886360000,-83.1952620000
13139,31024,US,Eatonton,GA,33.3254690000,-83.3443950000
13140,31025,US,Elko,GA,32.3523980000,-83.7420980000
13141,31026,US,Eatonton,GA,33.3210000000,-83.3780000000
13142,31027,US,East Dublin,GA,32.5597290000,-82.8151730000
13143,31028,US,Centerville,GA,32.6322860000,-83.6847940000
13144,31029,US,Forsyth,GA,33.0253650000,-83.9242340000
13145,31030,US,Fort Valley,GA,32.5735910000,-83.8928250000
13146,31031,US,Gordon,GA,32.8795570000,-83.3097700000
13147,31032,US,Gray,GA,33.0211900000,-83.5677380000
13148,31033,US,Haddock,GA,33.0645810000,-83.4476940000
13149,31034,US,Hardwick,GA,33.0366220000,-83.2166160000
13150,31035,US,Harrison,GA,32.8496940000,-82.7097940000
13151,31036,US,Hawkinsville,GA,32.2654710000,-83.4873720000
13152,31037,US,Helena,GA,32.1268050000,-82.9443950000
13153,31038,US,Hillsboro,GA,33.1267930000,-83.6502070000
13154,31039,US,Howard,GA,32.5915420000,-84.3889880000
13155,31040,US,Dublin,GA,32.5404000000,-82.9038000000
13156,31041,US,Ideal,GA,32.3651000000,-84.1800420000
13157,31042,US,Irwinton,GA,32.7520070000,-83.1562290000
13158,31044,US,Jeffersonville,GA,32.6729710000,-83.3455490000
13159,31045,US,Jewell,GA,33.3246940000,-82.7580480000
13160,31046,US,Juliette,GA,33.0398970000,-83.7897940000
13161,31047,US,Kathleen,GA,32.4630870000,-83.6020040000
13162,31049,US,Kite,GA,32.7080220000,-82.5230160000
13163,31050,US,Knoxville,GA,32.7056400000,-83.9338650000
13164,31051,US,Lilly,GA,32.1532860000,-83.8867800000
13165,31052,US,Lizella,GA,32.7715840000,-83.8555600000
13166,31054,US,Mc Intyre,GA,32.9052980000,-83.1733640000
13167,31055,US,Mc Rae,GA,31.9782010000,-82.8448410000
13168,31057,US,Marshallville,GA,32.4403720000,-83.9403400000
13169,31058,US,Mauk,GA,32.4964120000,-84.4507920000
13170,31059,US,Milledgeville,GA,33.0769000000,-83.3032000000
13171,31060,US,Milan,GA,31.9515260000,-83.0647120000
13172,31061,US,Milledgeville,GA,33.0814610000,-83.2085160000
13173,31062,US,Milledgeville,GA,33.0800000000,-83.2322000000
13174,31063,US,Montezuma,GA,32.2968530000,-83.9472590000
13175,31064,US,Monticello,GA,33.2870120000,-83.7001720000
13176,31065,US,Montrose,GA,32.5616680000,-83.1531010000
13177,31066,US,Musella,GA,32.7909680000,-84.0065780000
13178,31067,US,Oconee,GA,32.8660020000,-82.9390190000
13179,31068,US,Oglethorpe,GA,32.3476450000,-84.1169590000
13180,31069,US,Perry,GA,32.4375910000,-83.7197100000
13181,31070,US,Pinehurst,GA,32.1837890000,-83.7956520000
13182,31071,US,Pineview,GA,32.0875780000,-83.4686440000
13183,31072,US,Pitts,GA,31.9417290000,-83.5462860000
13184,31075,US,Rentz,GA,32.3395950000,-82.9648660000
13185,31076,US,Reynolds,GA,32.5305040000,-84.1477380000
13186,31077,US,Rhine,GA,31.9894990000,-83.2075730000
13187,31078,US,Roberta,GA,32.7066420000,-84.0792350000
13188,31079,US,Rochelle,GA,31.9445500000,-83.4597650000
13189,31081,US,Rupert,GA,32.4328860000,-84.3020180000
13190,31082,US,Sandersville,GA,32.9819570000,-82.8711620000
13191,31083,US,Scotland,GA,32.0355910000,-82.8261690000
13192,31084,US,Seville,GA,31.9612000000,-83.5997000000
13193,31085,US,Shady Dale,GA,33.4224140000,-83.6359110000
13194,31086,US,Smarr,GA,32.9834000000,-83.8751000000
13195,31087,US,Sparta,GA,33.2818100000,-83.0157380000
13196,31088,US,Warner Robins,GA,32.5790210000,-83.6281440000
13197,31089,US,Tennille,GA,32.8357000000,-82.8466880000
13198,31090,US,Toomsboro,GA,32.8093180000,-83.0525720000
13199,31091,US,Unadilla,GA,32.2111860000,-83.7292790000
13200,31092,US,Vienna,GA,32.0934850000,-83.7940120000
13201,31093,US,Warner Robins,GA,32.6502220000,-83.6543340000
13202,31094,US,Warthen,GA,33.1183970000,-82.7936720000
13203,31095,US,Warner Robins,GA,32.6205000000,-83.6002000000
13204,31096,US,Wrightsville,GA,32.7338200000,-82.7357110000
13205,31097,US,Yatesville,GA,32.8981820000,-84.1634600000
13206,31098,US,Warner Robins,GA,32.6197480000,-83.5735870000
13207,31099,US,Warner Robins,GA,32.6205000000,-83.6002000000
13208,31106,US,Atlanta,GA,33.7488000000,-84.3883000000
13209,31107,US,Atlanta,GA,33.7488000000,-84.3883000000
13210,31119,US,Atlanta,GA,33.7500000000,-84.2995000000
13211,31126,US,Atlanta,GA,33.7488000000,-84.3883000000
13212,31131,US,Atlanta,GA,33.7488000000,-84.3883000000
13213,31136,US,Atlanta,GA,,
13214,31139,US,Atlanta,GA,33.7488000000,-84.3883000000
13215,31141,US,Atlanta,GA,33.7926000000,-84.3252000000
13216,31144,US,Kennesaw,GA,,
13217,31145,US,Atlanta,GA,33.7926000000,-84.3252000000
13218,31146,US,Atlanta,GA,33.7926000000,-84.3252000000
13219,31150,US,Atlanta,GA,33.7488000000,-84.3883000000
13220,31156,US,Atlanta,GA,33.7488000000,-84.3883000000
13221,31169,US,Peachtree City,GA,,
13222,31192,US,Atlanta,GA,33.7488000000,-84.3883000000
13223,31193,US,Atlanta,GA,33.7488000000,-84.3883000000
13224,31195,US,Atlanta,GA,33.7488000000,-84.3883000000
13225,31196,US,Atlanta,GA,33.7488000000,-84.3883000000
13226,31201,US,Macon,GA,32.8199340000,-83.6184060000
13227,31202,US,Macon,GA,32.8407000000,-83.6325000000
13228,31203,US,Macon,GA,32.8407000000,-83.6325000000
13229,31204,US,Macon,GA,32.8546960000,-83.6780800000
13230,31205,US,Macon,GA,32.8407000000,-83.6325000000
13231,31206,US,Macon,GA,32.7944300000,-83.6728620000
13232,31207,US,Macon,GA,32.8282080000,-83.6515850000
13233,31208,US,Macon,GA,32.8407000000,-83.6325000000
13234,31209,US,Macon,GA,32.8407000000,-83.6325000000
13235,31210,US,Macon,GA,32.8974750000,-83.7535910000
13236,31211,US,Macon,GA,32.9215610000,-83.5800730000
13237,31213,US,Macon,GA,32.8407000000,-83.6325000000
13238,31216,US,Macon,GA,32.7481820000,-83.6860060000
13239,31217,US,Macon,GA,32.8057860000,-83.5039210000
13240,31220,US,Macon,GA,32.8794120000,-83.8161690000
13241,31221,US,Macon,GA,32.8399000000,-83.6103000000
13242,31294,US,Macon,GA,32.8407000000,-83.6325000000
13243,31295,US,Macon,GA,32.8407000000,-83.6325000000
13244,31296,US,Macon,GA,32.8407000000,-83.6325000000
13245,31297,US,Macon,GA,32.8407000000,-83.6325000000
13246,31301,US,Allenhurst,GA,31.7560130000,-81.6051600000
13247,31302,US,Bloomingdale,GA,32.1278290000,-81.3408600000
13248,31303,US,Clyo,GA,32.5095390000,-81.3025920000
13249,31304,US,Crescent,GA,31.4949310000,-81.3383840000
13250,31305,US,Darien,GA,31.3812400000,-81.4434660000
13251,31307,US,Eden,GA,32.1723130000,-81.4012800000
13252,31308,US,Ellabell,GA,32.1777700000,-81.5011340000
13253,31309,US,Fleming,GA,31.8812850000,-81.4588150000
13254,31310,US,Hinesville,GA,31.8475000000,-81.5964000000
13255,31312,US,Guyton,GA,32.3431320000,-81.4008680000
13256,31313,US,Hinesville,GA,31.8292960000,-81.6172580000
13257,31314,US,Fort Stewart,GA,31.9867010000,-81.5969420000
13258,31315,US,Fort Stewart,GA,31.8815310000,-81.5986180000
13259,31316,US,Ludowici,GA,31.7312760000,-81.7367940000
13260,31318,US,Meldrim,GA,32.1416170000,-81.3796900000
13261,31319,US,Meridian,GA,31.4230050000,-81.3568640000
13262,31320,US,Midway,GA,31.7193980000,-81.3581140000
13263,31321,US,Pembroke,GA,32.1878050000,-81.6626960000
13264,31322,US,Pooler,GA,32.0865100000,-81.2502540000
13265,31323,US,Riceboro,GA,31.7145200000,-81.4529880000
13266,31324,US,Richmond Hill,GA,31.8546860000,-81.2737330000
13267,31326,US,Rincon,GA,32.2923820000,-81.2178920000
13268,31327,US,Sapelo Island,GA,31.4576320000,-81.2570390000
13269,31328,US,Tybee Island,GA,32.0077340000,-80.8766880000
13270,31329,US,Springfield,GA,32.4326770000,-81.3454600000
13271,31331,US,Townsend,GA,31.5586380000,-81.4291610000
13272,31333,US,Walthourville,GA,31.7732400000,-81.6595140000
13273,31401,US,Savannah,GA,32.0757980000,-81.0756240000
13274,31402,US,Savannah,GA,32.0836000000,-81.1003000000
13275,31403,US,Savannah,GA,32.0836000000,-81.1003000000
13276,31404,US,Savannah,GA,32.0485530000,-81.0483420000
13277,31405,US,Savannah,GA,32.0364440000,-81.1684040000
13278,31406,US,Savannah,GA,31.9712070000,-81.0823740000
13279,31407,US,Port Wentworth,GA,32.1820940000,-81.1976200000
13280,31408,US,Savannah,GA,32.1166180000,-81.1931930000
13281,31409,US,Savannah,GA,32.0143990000,-81.1598000000
13282,31410,US,Savannah,GA,32.0194300000,-80.9527410000
13283,31411,US,Savannah,GA,31.9344950000,-81.0200230000
13284,31412,US,Savannah,GA,32.0836000000,-81.1003000000
13285,31414,US,Savannah,GA,32.0836000000,-81.1003000000
13286,31415,US,Savannah,GA,32.0828680000,-81.1378520000
13287,31416,US,Savannah,GA,32.0836000000,-81.1003000000
13288,31418,US,Savannah,GA,32.1145000000,-81.1544000000
13289,31419,US,Savannah,GA,31.9073100000,-81.1989820000
13290,31420,US,Savannah,GA,32.0836000000,-81.1003000000
13291,31421,US,Savannah,GA,32.0784000000,-81.0966000000
13292,31501,US,Waycross,GA,31.2280400000,-82.3479590000
13293,31502,US,Waycross,GA,31.2135000000,-82.3543000000
13294,31503,US,Waycross,GA,31.1826600000,-82.3596030000
13295,31510,US,Alma,GA,31.5500040000,-82.4621810000
13296,31512,US,Ambrose,GA,31.5568900000,-83.0187940000
13297,31513,US,Baxley,GA,31.7620260000,-82.3159760000
13298,31515,US,Baxley,GA,31.7714000000,-82.3465000000
13299,31516,US,Blackshear,GA,31.3240680000,-82.2463660000
13300,31518,US,Bristol,GA,31.5139680000,-82.1720180000
13301,31519,US,Broxton,GA,31.6858480000,-82.8812940000
13302,31520,US,Brunswick,GA,31.1390320000,-81.4791530000
13303,31521,US,Brunswick,GA,31.1497000000,-81.4917000000
13304,31522,US,Saint Simons Island,GA,31.2237690000,-81.3514400000
13305,31523,US,Brunswick,GA,31.2213530000,-81.6112260000
13306,31524,US,Brunswick,GA,31.1497000000,-81.4917000000
13307,31525,US,Brunswick,GA,31.3149240000,-81.5221940000
13308,31527,US,Jekyll Island,GA,31.0666600000,-81.4210520000
13309,31532,US,Denton,GA,31.7269140000,-82.7555590000
13310,31533,US,Douglas,GA,31.5544940000,-82.8453360000
13311,31534,US,Douglas,GA,31.5113000000,-82.8463000000
13312,31535,US,Douglas,GA,31.4600740000,-82.8674920000
13313,31537,US,Folkston,GA,30.9261720000,-82.0989490000
13314,31539,US,Hazlehurst,GA,31.8223810000,-82.6336480000
13315,31542,US,Hoboken,GA,31.1438560000,-82.1213440000
13316,31543,US,Hortense,GA,31.3593150000,-81.8456210000
13317,31544,US,Jacksonville,GA,31.8481450000,-82.9430080000
13318,31545,US,Jesup,GA,31.5951780000,-81.9475780000
13319,31546,US,Jesup,GA,31.5203240000,-81.7764170000
13320,31547,US,Kings Bay,GA,30.8013320000,-81.5333380000
13321,31548,US,Kingsland,GA,30.8269640000,-81.7303030000
13322,31549,US,Lumber City,GA,31.9040720000,-82.7560730000
13323,31550,US,Manor,GA,30.9001110000,-82.4087720000
13324,31551,US,Mershon,GA,31.4879190000,-82.2654040000
13325,31552,US,Millwood,GA,31.2890800000,-82.6244440000
13326,31553,US,Nahunta,GA,31.1584640000,-81.9707300000
13327,31554,US,Nicholls,GA,31.4888290000,-82.6131490000
13328,31555,US,Odum,GA,31.7075760000,-82.0711490000
13329,31556,US,Offerman,GA,31.4096000000,-82.1118000000
13330,31557,US,Patterson,GA,31.3764000000,-82.1005920000
13331,31558,US,Saint Marys,GA,30.8427410000,-81.5288760000
13332,31560,US,Screven,GA,31.4917740000,-82.0401640000
13333,31561,US,Sea Island,GA,31.1952390000,-81.3369420000
13334,31562,US,Saint George,GA,30.5890680000,-82.1227690000
13335,31563,US,Surrency,GA,31.7157830000,-82.1808320000
13336,31564,US,Waresboro,GA,31.2476000000,-82.4737000000
13337,31565,US,Waverly,GA,31.0611470000,-81.6272300000
13338,31566,US,Waynesville,GA,31.1796960000,-81.8421040000
13339,31567,US,West Green,GA,31.6048090000,-82.6945840000
13340,31568,US,White Oak,GA,30.9994850000,-81.7854970000
13341,31569,US,Woodbine,GA,30.9129570000,-81.6340910000
13342,31598,US,Jesup,GA,31.5991000000,-81.8846000000
13343,31599,US,Jesup,GA,31.5988000000,-81.8840000000
13344,31601,US,Valdosta,GA,30.7533160000,-83.3507910000
13345,31602,US,Valdosta,GA,30.8717160000,-83.3380280000
13346,31603,US,Valdosta,GA,30.8327000000,-83.2785000000
13347,31604,US,Valdosta,GA,30.8325000000,-83.2786000000
13348,31605,US,Valdosta,GA,30.9510250000,-83.2271500000
13349,31606,US,Valdosta,GA,30.8229530000,-83.1880840000
13350,31620,US,Adel,GA,31.1191800000,-83.4283360000
13351,31622,US,Alapaha,GA,31.3918600000,-83.1738000000
13352,31623,US,Argyle,GA,31.0751600000,-82.6661200000
13353,31624,US,Axson,GA,31.2998480000,-82.7233850000
13354,31625,US,Barney,GA,31.0042240000,-83.5257660000
13355,31626,US,Boston,GA,30.7915560000,-83.8068380000
13356,31627,US,Cecil,GA,31.0634700000,-83.3758750000
13357,31629,US,Dixie,GA,30.7692580000,-83.6872520000
13358,31630,US,Du Pont,GA,30.9346630000,-82.8707480000
13359,31631,US,Fargo,GA,30.7812930000,-82.6371930000
13360,31632,US,Hahira,GA,30.9668540000,-83.3680680000
13361,31634,US,Homerville,GA,31.0407190000,-82.7527740000
13362,31635,US,Lakeland,GA,31.0472440000,-83.1006150000
13363,31636,US,Lake Park,GA,30.7450240000,-83.1006560000
13364,31637,US,Lenox,GA,31.2710840000,-83.4500800000
13365,31638,US,Morven,GA,30.9167680000,-83.5124850000
13366,31639,US,Nashville,GA,31.2278790000,-83.1918580000
13367,31641,US,Naylor,GA,30.8893120000,-83.0934340000
13368,31642,US,Pearson,GA,31.2956860000,-82.8682720000
13369,31643,US,Quitman,GA,30.7919920000,-83.5504670000
13370,31645,US,Ray City,GA,31.0616960000,-83.2439980000
13371,31647,US,Sparks,GA,31.2006390000,-83.4655950000
13372,31648,US,Statenville,GA,30.7202060000,-82.8165470000
13373,31649,US,Stockton,GA,31.0179080000,-83.0172660000
13374,31650,US,Willacoochee,GA,31.3309800000,-83.0004250000
13375,31698,US,Valdosta,GA,30.8660220000,-83.2873630000
13376,31699,US,Moody AFB,GA,30.9667820000,-83.1985500000
13377,31701,US,Albany,GA,31.5813310000,-84.1519100000
13378,31702,US,Albany,GA,31.5783000000,-84.1556000000
13379,31703,US,Albany,GA,31.5783000000,-84.1571000000
13380,31704,US,Albany,GA,31.5512240000,-84.0646320000
13381,31705,US,Albany,GA,31.5185960000,-84.0383780000
13382,31706,US,Albany,GA,31.5783000000,-84.1556000000
13383,31707,US,Albany,GA,31.5846120000,-84.2243940000
13384,31708,US,Albany,GA,31.5783000000,-84.1556000000
13385,31709,US,Americus,GA,32.0132940000,-84.1202250000
13386,31711,US,Andersonville,GA,32.1860850000,-84.1139900000
13387,31712,US,Arabi,GA,31.8324660000,-83.7330220000
13388,31714,US,Ashburn,GA,31.7076670000,-83.6817080000
13389,31716,US,Baconton,GA,31.3779440000,-84.1206990000
13390,31719,US,Americus,GA,32.0639200000,-84.3085480000
13391,31720,US,Barwick,GA,30.8863250000,-83.7381920000
13392,31721,US,Albany,GA,31.4967380000,-84.2977640000
13393,31722,US,Berlin,GA,31.0677840000,-83.6239430000
13394,31727,US,Brookfield,GA,31.4186000000,-83.3898000000
13395,31730,US,Camilla,GA,31.2119960000,-84.2547480000
13396,31733,US,Chula,GA,31.5870900000,-83.5086160000
13397,31735,US,Cobb,GA,31.9758090000,-83.9636670000
13398,31738,US,Coolidge,GA,31.0092340000,-83.8725540000
13399,31739,US,Cotton,GA,31.1615000000,-84.0665000000
13400,31743,US,De Soto,GA,31.9151860000,-83.9979710000
13401,31744,US,Doerun,GA,31.3182630000,-83.9288900000
13402,31747,US,Ellenton,GA,31.1743930000,-83.5835750000
13403,31749,US,Enigma,GA,31.3627000000,-83.3445060000
13404,31750,US,Fitzgerald,GA,31.7392510000,-83.2072000000
13405,31753,US,Funston,GA,31.1998000000,-83.8738000000
13406,31756,US,Hartsfield,GA,31.1841800000,-83.9437540000
13407,31757,US,Thomasville,GA,30.8551510000,-83.9097420000
13408,31758,US,Thomasville,GA,30.8297000000,-83.9811000000
13409,31760,US,Irwinville,GA,31.6284460000,-83.4375600000
13410,31763,US,Leesburg,GA,31.7400350000,-84.1316120000
13411,31764,US,Leslie,GA,31.9661710000,-84.0833780000
13412,31765,US,Meigs,GA,31.1065340000,-84.0319140000
13413,31768,US,Moultrie,GA,31.2127970000,-83.8581610000
13414,31769,US,Mystic,GA,31.6216000000,-83.3357000000
13415,31771,US,Norman Park,GA,31.2435950000,-83.6348670000
13416,31772,US,Oakfield,GA,31.7422740000,-83.9686060000
13417,31773,US,Ochlocknee,GA,30.9586040000,-84.0677080000
13418,31774,US,Ocilla,GA,31.5769790000,-83.2747960000
13419,31775,US,Omega,GA,31.3183660000,-83.6013340000
13420,31776,US,Moultrie,GA,31.1797000000,-83.7892000000
13421,31778,US,Pavo,GA,30.9507150000,-83.7232440000
13422,31779,US,Pelham,GA,31.1027200000,-84.2144120000
13423,31780,US,Plains,GA,32.0114590000,-84.3681100000
13424,31781,US,Poulan,GA,31.5414920000,-83.7890790000
13425,31782,US,Putney,GA,31.4725000000,-84.1217000000
13426,31783,US,Rebecca,GA,31.7663390000,-83.4564170000
13427,31784,US,Sale City,GA,31.2416940000,-84.0473230000
13428,31787,US,Smithville,GA,31.8921420000,-84.2191590000
13429,31788,US,Moultrie,GA,31.1246440000,-83.6964510000
13430,31789,US,Sumner,GA,31.4746890000,-83.7188210000
13431,31790,US,Sycamore,GA,31.6530270000,-83.5663970000
13432,31791,US,Sylvester,GA,31.5180720000,-83.8545460000
13433,31792,US,Thomasville,GA,30.8011600000,-84.0807220000
13434,31793,US,Tifton,GA,31.4731320000,-83.5775090000
13435,31794,US,Tifton,GA,31.4407840000,-83.4379970000
13436,31795,US,Ty Ty,GA,31.4647280000,-83.6669180000
13437,31796,US,Warwick,GA,31.7480210000,-83.8774850000
13438,31798,US,Wray,GA,31.6461570000,-83.0849900000
13439,31799,US,Thomasville,GA,30.8366000000,-83.9787000000
13440,31801,US,Box Springs,GA,32.4829450000,-84.5639590000
13441,31803,US,Buena Vista,GA,32.3083120000,-84.5245120000
13442,31804,US,Cataula,GA,32.6610760000,-84.8784100000
13443,31805,US,Cusseta,GA,32.2958910000,-84.7913250000
13444,31806,US,Ellaville,GA,32.2947850000,-84.3060460000
13445,31807,US,Ellerslie,GA,32.6478940000,-84.7877240000
13446,31808,US,Fortson,GA,32.6351730000,-85.0065780000
13447,31810,US,Geneva,GA,32.5597760000,-84.5466790000
13448,31811,US,Hamilton,GA,32.7409130000,-84.9469080000
13449,31812,US,Junction City,GA,32.5963130000,-84.4516530000
13450,31814,US,Louvale,GA,32.1622200000,-84.8417050000
13451,31815,US,Lumpkin,GA,32.0391220000,-84.8944460000
13452,31816,US,Manchester,GA,32.8751680000,-84.5832280000
13453,31820,US,Midland,GA,32.5799550000,-84.8366300000
13454,31821,US,Omaha,GA,32.1442680000,-84.9040820000
13455,31822,US,Pine Mountain,GA,32.8658310000,-84.8974870000
13456,31823,US,Pine Mountain Valley,GA,32.8032900000,-84.8139230000
13457,31824,US,Preston,GA,32.0969000000,-84.5413710000
13458,31825,US,Richland,GA,32.0766240000,-84.6951590000
13459,31826,US,Shiloh,GA,32.7836760000,-84.7095200000
13460,31827,US,Talbotton,GA,32.7012360000,-84.4949440000
13461,31829,US,Upatoi,GA,32.5598140000,-84.7310010000
13462,31830,US,Warm Springs,GA,32.9040400000,-84.7519350000
13463,31831,US,Waverly Hall,GA,32.6733310000,-84.7436180000
13464,31832,US,Weston,GA,31.9761900000,-84.5498470000
13465,31833,US,West Point,GA,32.8352160000,-85.1012170000
13466,31836,US,Woodland,GA,32.7922670000,-84.5511480000
13467,31901,US,Columbus,GA,32.4649360000,-84.9778600000
13468,31902,US,Columbus,GA,32.4608000000,-84.9876000000
13469,31903,US,Columbus,GA,32.4147530000,-84.9520280000
13470,31904,US,Columbus,GA,32.5439720000,-85.0138610000
13471,31905,US,Fort Benning,GA,32.3960060000,-84.8226700000
13472,31906,US,Columbus,GA,32.4662510000,-84.9530720000
13473,31907,US,Columbus,GA,32.4777900000,-84.8218140000
13474,31908,US,Columbus,GA,32.4608000000,-84.9876000000
13475,31909,US,Columbus,GA,32.5437540000,-84.9157700000
13476,31914,US,Columbus,GA,32.5564000000,-84.7387000000
13477,31917,US,Columbus,GA,32.5564000000,-84.7387000000
13478,31993,US,Columbus,GA,32.4608000000,-84.9876000000
13479,31995,US,Fort Benning,GA,32.4608000000,-84.9876000000
13480,31997,US,Columbus,GA,32.4608000000,-84.9876000000
13481,31998,US,Columbus,GA,32.4608000000,-84.9876000000
13482,31999,US,Columbus,GA,32.4608000000,-84.9876000000
17127,39813,US,Arlington,GA,31.4719680000,-84.7423640000
17128,39815,US,Attapulgus,GA,30.7526400000,-84.4833140000
17129,39817,US,Bainbridge,GA,30.9378900000,-84.5772500000
17130,39818,US,Bainbridge,GA,30.8750000000,-84.5830000000
17131,39819,US,Bainbridge,GA,30.8017180000,-84.6697790000
17132,39823,US,Blakely,GA,31.3859000000,-84.9396750000
17133,39824,US,Bluffton,GA,31.5528220000,-84.9146690000
17134,39825,US,Brinson,GA,30.9113910000,-84.7499080000
17135,39826,US,Bronwood,GA,31.8133140000,-84.3333440000
17136,39827,US,Cairo,GA,30.9590380000,-84.2002740000
17137,39828,US,Cairo,GA,30.8072080000,-84.2268160000
17138,39829,US,Calvary,GA,30.7480000000,-84.3110000000
17139,39832,US,Cedar Springs,GA,31.1840000000,-85.0360000000
17140,39834,US,Climax,GA,30.8920600000,-84.4477150000
17141,39836,US,Coleman,GA,31.6763190000,-84.8710780000
17142,39837,US,Colquitt,GA,31.1508880000,-84.7207330000
17143,39840,US,Cuthbert,GA,31.7756740000,-84.7792400000
17144,39841,US,Damascus,GA,31.3428180000,-84.7357750000
17145,39842,US,Dawson,GA,31.7924640000,-84.4452000000
17146,39845,US,Donalsonville,GA,30.9441340000,-84.8990860000
17147,39846,US,Edison,GA,31.5601360000,-84.7518060000
17148,39851,US,Fort Gaines,GA,31.6481890000,-85.0337220000
17149,39852,US,Fowlstown,GA,30.8030000000,-84.5500000000
17150,39854,US,Georgetown,GA,31.9130010000,-85.0207660000
17151,39859,US,Iron City,GA,30.9596400000,-84.7902640000
17152,39861,US,Jakin,GA,31.1782550000,-85.0143340000
17153,39862,US,Leary,GA,31.5248760000,-84.4982790000
17154,39866,US,Morgan,GA,31.5379950000,-84.6205020000
17155,39867,US,Morris,GA,31.8424720000,-85.0247060000
17156,39870,US,Newton,GA,31.2665190000,-84.4296770000
17157,39877,US,Parrott,GA,31.9121200000,-84.5079550000
17158,39885,US,Sasser,GA,31.7180000000,-84.3690000000
17159,39886,US,Shellman,GA,31.7300280000,-84.6084430000
17160,39897,US,Whigham,GA,30.8983070000,-84.3265600000
17161,39901,US,Atlanta,GA,33.7512000000,-84.3944000000
